{"type": "FeatureCollection", "features": [{"type": "Feature", "properties": {"norad_id": 28890, "name": "BEIJING 1", "group": "dmc", "lat": 39.96514223916462, "lon": 96.93789146841814, "alt_km": 686.2600701943729, "timestamp": "2025-12-02T10:50:46.939962+00:00", "meta": {"OBJECT_NAME": "BEIJING 1", "OBJECT_ID": "2005-043A", "EPOCH": "2025-12-02T05:44:18.304800", "MEAN_MOTION": 14.63349369, "ECCENTRICITY": 0.0014771, "INCLINATION": 98.2649, "RA_OF_ASC_NODE": 103.7216, "ARG_OF_PERICENTER": 173.3095, "MEAN_ANOMALY": 186.8307, "EPHEMERIS_TYPE": 0, "CLASSIFICATION_TYPE": "U", "NORAD_CAT_ID": 28890, "ELEMENT_SET_NO": 999, "REV_AT_EPOCH": 7184, "BSTAR": 0.00010902, "MEAN_MOTION_DOT": 5.15e-06, "MEAN_MOTION_DDOT": 0}, "tle": {"line1": "1 28890U 05043A   25336.23910075  .00000515  00000+0  10902-3 0  9990", "line2": "2 28890  98.2649 103.7216 0014771 173.3095 186.8307 14.63349369 71846"}}, "geometry": {"type": "Point", "coordinates": [96.93789146841814, 39.96514223916462]}}, {"type": "Feature", "properties": {"norad_id": 33320, "name": "HUANJING 1A (HJ-1A)", "group": "dmc", "lat": 47.823830041817494, "lon": -43.35450033377461, "alt_km": 600.7735327754035, "timestamp": "2025-12-02T10:50:46.939991+00:00", "meta": {"OBJECT_NAME": "HUANJING 1A (HJ-1A)", "OBJECT_ID": "2008-041A", "EPOCH": "2025-12-02T05:46:21.713376", "MEAN_MOTION": 14.83339261, "ECCENTRICITY": 0.002068, "INCLINATION": 97.6533, "RA_OF_ASC_NODE": 324.9783, "ARG_OF_PERICENTER": 66.8541, "MEAN_ANOMALY": 293.485, "EPHEMERIS_TYPE": 0, "CLASSIFICATION_TYPE": "U", "NORAD_CAT_ID": 33320, "ELEMENT_SET_NO": 999, "REV_AT_EPOCH": 92920, "BSTAR": 0.00022129, "MEAN_MOTION_DOT": 1.769e-05, "MEAN_MOTION_DDOT": 0}, "tle": {"line1": "1 33320U 08041A   25336.24052909  .00001769  00000+0  22129-3 0  9995", "line2": "2 33320  97.6533 324.9783 0020680  66.8541 293.4850 14.83339261929201"}}, "geometry": {"type": "Point", "coordinates": [-43.35450033377461, 47.823830041817494]}}, {"type": "Feature", "properties": {"norad_id": 33321, "name": "HUANJING 1B (HJ-1B)", "group": "dmc", "lat": -68.06760181456998, "lon": -11.623761412995936, "alt_km": 654.515382001422, "timestamp": "2025-12-02T10:50:46.940006+00:00", "meta": {"OBJECT_NAME": "HUANJING 1B (HJ-1B)", "OBJECT_ID": "2008-041B", "EPOCH": "2025-12-02T04:40:56.272800", "MEAN_MOTION": 14.82776334, "ECCENTRICITY": 0.0038134, "INCLINATION": 97.6395, "RA_OF_ASC_NODE": 328.6592, "ARG_OF_PERICENTER": 109.0893, "MEAN_ANOMALY": 251.4457, "EPHEMERIS_TYPE": 0, "CLASSIFICATION_TYPE": "U", "NORAD_CAT_ID": 33321, "ELEMENT_SET_NO": 999, "REV_AT_EPOCH": 92921, "BSTAR": 0.00018004, "MEAN_MOTION_DOT": 1.422e-05, "MEAN_MOTION_DDOT": 0}, "tle": {"line1": "1 33321U 08041B   25336.19509575  .00001422  00000+0  18004-3 0  9999", "line2": "2 33321  97.6395 328.6592 0038134 109.0893 251.4457 14.82776334929213"}}, "geometry": {"type": "Point", "coordinates": [-11.623761412995936, -68.06760181456998]}}, {"type": "Feature", "properties": {"norad_id": 33446, "name": "YAOGAN-4", "group": "dmc", "lat": -27.117398802892936, "lon": 82.5665166561606, "alt_km": 635.6530258820922, "timestamp": "2025-12-02T10:50:46.940018+00:00", "meta": {"OBJECT_NAME": "YAOGAN-4", "OBJECT_ID": "2008-061A", "EPOCH": "2025-12-02T01:48:54.750816", "MEAN_MOTION": 14.82626572, "ECCENTRICITY": 0.0014513, "INCLINATION": 97.9167, "RA_OF_ASC_NODE": 266.2805, "ARG_OF_PERICENTER": 358.8966, "MEAN_ANOMALY": 1.2213, "EPHEMERIS_TYPE": 0, "CLASSIFICATION_TYPE": "U", "NORAD_CAT_ID": 33446, "ELEMENT_SET_NO": 999, "REV_AT_EPOCH": 91645, "BSTAR": 0.00023667, "MEAN_MOTION_DOT": 1.856e-05, "MEAN_MOTION_DDOT": 0}, "tle": {"line1": "1 33446U 08061A   25336.07563369  .00001856  00000+0  23667-3 0  9999", "line2": "2 33446  97.9167 266.2805 0014513 358.8966   1.2213 14.82626572916456"}}, "geometry": {"type": "Point", "coordinates": [82.5665166561606, -27.117398802892936]}}, {"type": "Feature", "properties": {"norad_id": 35681, "name": "DEIMOS-1", "group": "dmc", "lat": -79.44143705255429, "lon": -89.1203677185182, "alt_km": 654.5459220624971, "timestamp": "2025-12-02T10:50:46.940030+00:00", "meta": {"OBJECT_NAME": "DEIMOS-1", "OBJECT_ID": "2009-041A", "EPOCH": "2025-12-02T04:46:26.857344", "MEAN_MOTION": 14.74925681, "ECCENTRICITY": 0.0002666, "INCLINATION": 97.7145, "RA_OF_ASC_NODE": 137.2935, "ARG_OF_PERICENTER": 98.7938, "MEAN_ANOMALY": 261.3574, "EPHEMERIS_TYPE": 0, "CLASSIFICATION_TYPE": "U", "NORAD_CAT_ID": 35681, "ELEMENT_SET_NO": 999, "REV_AT_EPOCH": 87784, "BSTAR": 0.00013823, "MEAN_MOTION_DOT": 8.81e-06, "MEAN_MOTION_DDOT": 0}, "tle": {"line1": "1 35681U 09041A   25336.19892196  .00000881  00000+0  13823-3 0  9997", "line2": "2 35681  97.7145 137.2935 0002666  98.7938 261.3574 14.74925681877841"}}, "geometry": {"type": "Point", "coordinates": [-89.1203677185182, -79.44143705255429]}}, {"type": "Feature", "properties": {"norad_id": 35683, "name": "UK-DMC 2", "group": "dmc", "lat": -71.49487708468475, "lon": -92.71833973237588, "alt_km": 651.3771690154881, "timestamp": "2025-12-02T10:50:46.940045+00:00", "meta": {"OBJECT_NAME": "UK-DMC 2", "OBJECT_ID": "2009-041C", "EPOCH": "2025-12-02T04:49:12.622656", "MEAN_MOTION": 14.75582936, "ECCENTRICITY": 0.0001269, "INCLINATION": 97.8561, "RA_OF_ASC_NODE": 111.4019, "ARG_OF_PERICENTER": 103.0172, "MEAN_ANOMALY": 257.1179, "EPHEMERIS_TYPE": 0, "CLASSIFICATION_TYPE": "U", "NORAD_CAT_ID": 35683, "ELEMENT_SET_NO": 999, "REV_AT_EPOCH": 87751, "BSTAR": 0.00019543, "MEAN_MOTION_DOT": 1.283e-05, "MEAN_MOTION_DDOT": 0}, "tle": {"line1": "1 35683U 09041C   25336.20084054  .00001283  00000+0  19543-3 0  9999", "line2": "2 35683  97.8561 111.4019 0001269 103.0172 257.1179 14.75582936877512"}}, "geometry": {"type": "Point", "coordinates": [-92.71833973237588, -71.49487708468475]}}, {"type": "Feature", "properties": {"norad_id": 40715, "name": "DMC3-FM1", "group": "dmc", "lat": -60.18210802408311, "lon": -142.38047977035635, "alt_km": 617.4818489272939, "timestamp": "2025-12-02T10:50:46.940056+00:00", "meta": {"OBJECT_NAME": "DMC3-FM1", "OBJECT_ID": "2015-032A", "EPOCH": "2025-12-02T04:39:14.135040", "MEAN_MOTION": 14.8540967, "ECCENTRICITY": 0.0005429, "INCLINATION": 97.6706, "RA_OF_ASC_NODE": 203.77, "ARG_OF_PERICENTER": 358.4244, "MEAN_ANOMALY": 1.6953, "EPHEMERIS_TYPE": 0, "CLASSIFICATION_TYPE": "U", "NORAD_CAT_ID": 40715, "ELEMENT_SET_NO": 999, "REV_AT_EPOCH": 56066, "BSTAR": 0.00011941, "MEAN_MOTION_DOT": 9.77e-06, "MEAN_MOTION_DDOT": 0}, "tle": {"line1": "1 40715U 15032A   25336.19391360  .00000977  00000+0  11941-3 0  9990", "line2": "2 40715  97.6706 203.7700 0005429 358.4244   1.6953 14.85409670560664"}}, "geometry": {"type": "Point", "coordinates": [-142.38047977035635, -60.18210802408311]}}, {"type": "Feature", "properties": {"norad_id": 40716, "name": "DMC3-FM2", "group": "dmc", "lat": 1.128400919569799, "lon": 25.607336293583316, "alt_km": 619.424726693368, "timestamp": "2025-12-02T10:50:46.940067+00:00", "meta": {"OBJECT_NAME": "DMC3-FM2", "OBJECT_ID": "2015-032B", "EPOCH": "2025-12-02T05:11:38.836608", "MEAN_MOTION": 14.85410942, "ECCENTRICITY": 0.0006076, "INCLINATION": 97.6757, "RA_OF_ASC_NODE": 205.2281, "ARG_OF_PERICENTER": 2.3547, "MEAN_ANOMALY": 357.7696, "EPHEMERIS_TYPE": 0, "CLASSIFICATION_TYPE": "U", "NORAD_CAT_ID": 40716, "ELEMENT_SET_NO": 999, "REV_AT_EPOCH": 56066, "BSTAR": 0.00012575, "MEAN_MOTION_DOT": 1.032e-05, "MEAN_MOTION_DDOT": 0}, "tle": {"line1": "1 40716U 15032B   25336.21642172  .00001032  00000+0  12575-3 0  9991", "line2": "2 40716  97.6757 205.2281 0006076   2.3547 357.7696 14.85410942560665"}}, "geometry": {"type": "Point", "coordinates": [25.607336293583316, 1.128400919569799]}}, {"type": "Feature", "properties": {"norad_id": 40717, "name": "DMC3-FM3", "group": "dmc", "lat": 62.490385588255755, "lon": -167.93850567416033, "alt_km": 604.3283111757255, "timestamp": "2025-12-02T10:50:46.940078+00:00", "meta": {"OBJECT_NAME": "DMC3-FM3", "OBJECT_ID": "2015-032C", "EPOCH": "2025-12-02T04:05:41.662176", "MEAN_MOTION": 14.85405195, "ECCENTRICITY": 0.0005436, "INCLINATION": 97.6812, "RA_OF_ASC_NODE": 206.81, "ARG_OF_PERICENTER": 4.6223, "MEAN_ANOMALY": 355.5042, "EPHEMERIS_TYPE": 0, "CLASSIFICATION_TYPE": "U", "NORAD_CAT_ID": 40717, "ELEMENT_SET_NO": 999, "REV_AT_EPOCH": 56066, "BSTAR": 0.00010278, "MEAN_MOTION_DOT": 8.34e-06, "MEAN_MOTION_DDOT": 0}, "tle": {"line1": "1 40717U 15032C   25336.17062109  .00000834  00000+0  10278-3 0  9990", "line2": "2 40717  97.6812 206.8100 0005436   4.6223 355.5042 14.85405195560665"}}, "geometry": {"type": "Point", "coordinates": [-167.93850567416033, 62.490385588255755]}}]}